{"type": "FeatureCollection", "features": [ {"type": "Feature", "properties": {"norad_id": 64902, "name": "CO3D 2", "group": "resource", "lat": -46.24316824877522, "lon": -112.45985748611669, "alt_km": 512.5588131124096, "timestamp": "2025-12-25T07:00:33.700703+00:00", "meta": {"OBJECT_NAME": "CO3D 2", "OBJECT_ID": "2025-156D", "EPOCH": "2025-12-24T20:32:12.517152", "MEAN_MOTION": 15.20196009, "ECCENTRICITY": 7.517e-05, "INCLINATION": 97.4339, "RA_OF_ASC_NODE": 74.9475, "ARG_OF_PERICENTER": 64.6322, "MEAN_ANOMALY": 295.499, "EPHEMERIS_TYPE": 0, "CLASSIFICATION_TYPE": "U", "NORAD_CAT_ID": 64902, "ELEMENT_SET_NO": 999, "REV_AT_EPOCH": 2304, "BSTAR": 0.00027270195, "MEAN_MOTION_DOT": 5.839e-05, "MEAN_MOTION_DDOT": 0}, "tle": {"line1": "1 64902U 25156D   25358.85570043  .00005839  00000+0  27270-3 0  9990", "line2": "2 64902  97.4339  74.9475 0000751  64.6322 295.4990 15.20196009 23040"}}, "geometry": {"type": "Point", "coordinates": [-112.45985748611669, -46.24316824877522]}}, {"type": "Feature", "properties": {"norad_id": 64903, "name": "CO3D 1", "group": "resource", "lat": -45.40328356514316, "lon": -112.23176178183165, "alt_km": 512.6154745013318, "timestamp": "2025-12-25T07:00:33.700713+00:00", "meta": {"OBJECT_NAME": "CO3D 1", "OBJECT_ID": "2025-156E", "EPOCH": "2025-12-24T23:42:00.216000", "MEAN_MOTION": 15.20192091, "ECCENTRICITY": 8.937e-05, "INCLINATION": 97.4338, "RA_OF_ASC_NODE": 75.0775, "ARG_OF_PERICENTER": 69.699, "MEAN_ANOMALY": 290.4341, "EPHEMERIS_TYPE": 0, "CLASSIFICATION_TYPE": "U", "NORAD_CAT_ID": 64903, "ELEMENT_SET_NO": 999, "REV_AT_EPOCH": 2306, "BSTAR": 0.00028982703, "MEAN_MOTION_DOT": 6.21e-05, "MEAN_MOTION_DDOT": 0}, "tle": {"line1": "1 64903U 25156E   25358.98750250  .00006210  00000+0  28983-3 0  9991", "line2": "2 64903  97.4338  75.0775 0000893  69.6990 290.4341 15.20192091 23062"}}, "geometry": {"type": "Point", "coordinates": [-112.23176178183165, -45.40328356514316]}}, {"type": "Feature", "properties": {"norad_id": 66514, "name": "SENTINEL-6B", "group": "resource", "lat": 13.625622689924143, "lon": 142.55027863313668, "alt_km": 1339.332346292851, "timestamp": "2025-12-25T07:00:33.700723+00:00", "meta": {"OBJECT_NAME": "SENTINEL-6B", "OBJECT_ID": "2025-264A", "EPOCH": "2025-12-24T15:56:27.687840", "MEAN_MOTION": 12.80929573, "ECCENTRICITY": 0.00078982, "INCLINATION": 66.0398, "RA_OF_ASC_NODE": 137.6666, "ARG_OF_PERICENTER": 269.9778, "MEAN_ANOMALY": 90.0333, "EPHEMERIS_TYPE": 0, "CLASSIFICATION_TYPE": "U", "NORAD_CAT_ID": 66514, "ELEMENT_SET_NO": 999, "REV_AT_EPOCH": 481, "BSTAR": 6.3146286e-05, "MEAN_MOTION_DOT": -4.6e-07, "MEAN_MOTION_DDOT": 0}, "tle": {"line1": "1 66514U 25264A   25358.66420935 -.00000046  00000+0  63146-4 0  9993", "line2": "2 66514  66.0398 137.6666 0007898 269.9778  90.0333 12.80929573  4818"}}, "geometry": {"type": "Point", "coordinates": [142.55027863313668, 13.625622689924143]}}]}